CCSDS_OMM_VERS = 2.0
CREATION_DATE  = 
ORIGINATOR     = 

OBJECT_NAME    = STARLINK-35490
OBJECT_ID      = 2025-243AD
CENTER_NAME    = EARTH
REF_FRAME      = TEME
TIME_SYSTEM    = UTC
MEAN_ELEMENT_THEORY = SGP/SGP4

EPOCH          = 2025-11-07T16:03:25.803360
MEAN_MOTION    = 15.79230170
ECCENTRICITY   = .0015344
INCLINATION    = 53.1528
RA_OF_ASC_NODE = 96.2027
ARG_OF_PERICENTER = 199.2029
MEAN_ANOMALY   = 160.8416

EPHEMERIS_TYPE = 0
CLASSIFICATION_TYPE = U
NORAD_CAT_ID   = 66204
ELEMENT_SET_NO = 999
REV_AT_EPOCH   = 191
BSTAR          = .15031E-1
MEAN_MOTION_DOT = .3267006E-1
MEAN_MOTION_DDOT = 0

CCSDS_OMM_VERS = 2.0
CREATION_DATE  = 
ORIGINATOR     = 

OBJECT_NAME    = GRAVITY-1 R/B
OBJECT_ID      = 2025-226E
CENTER_NAME    = EARTH
REF_FRAME      = TEME
TIME_SYSTEM    = UTC
MEAN_ELEMENT_THEORY = SGP/SGP4

EPOCH          = 2025-11-08T04:07:01.030944
MEAN_MOTION    = 15.54165820
ECCENTRICITY   = .0159908
INCLINATION    = 97.7920
RA_OF_ASC_NODE = 28.8349
ARG_OF_PERICENTER = 297.4136
MEAN_ANOMALY   = 61.0927

EPHEMERIS_TYPE = 0
CLASSIFICATION_TYPE = U
NORAD_CAT_ID   = 66205
ELEMENT_SET_NO = 999
REV_AT_EPOCH   = 210
BSTAR          = .3783E-3
MEAN_MOTION_DOT = .42902E-3
MEAN_MOTION_DDOT = .28498E-5

CCSDS_OMM_VERS = 2.0
CREATION_DATE  = 
ORIGINATOR     = 

OBJECT_NAME    = STARLINK-35748
OBJECT_ID      = 2025-244A
CENTER_NAME    = EARTH
REF_FRAME      = TEME
TIME_SYSTEM    = UTC
MEAN_ELEMENT_THEORY = SGP/SGP4

EPOCH          = 2025-11-07T23:35:48.589728
MEAN_MOTION    = 15.81584153
ECCENTRICITY   = .0000949
INCLINATION    = 53.1546
RA_OF_ASC_NODE = 81.7930
ARG_OF_PERICENTER = 21.9705
MEAN_ANOMALY   = 338.1359

EPHEMERIS_TYPE = 0
CLASSIFICATION_TYPE = U
NORAD_CAT_ID   = 66206
ELEMENT_SET_NO = 999
REV_AT_EPOCH   = 293
BSTAR          = -.20098E-2
MEAN_MOTION_DOT = -.392631E-2
MEAN_MOTION_DDOT = 0

CCSDS_OMM_VERS = 2.0
CREATION_DATE  = 
ORIGINATOR     = 

OBJECT_NAME    = STARLINK-35747
OBJECT_ID      = 2025-244B
CENTER_NAME    = EARTH
REF_FRAME      = TEME
TIME_SYSTEM    = UTC
MEAN_ELEMENT_THEORY = SGP/SGP4

EPOCH          = 2025-11-07T23:35:23.574336
MEAN_MOTION    = 15.81557842
ECCENTRICITY   = .0002319
INCLINATION    = 53.1547
RA_OF_ASC_NODE = 81.7913
ARG_OF_PERICENTER = 34.4145
MEAN_ANOMALY   = 325.7027

EPHEMERIS_TYPE = 0
CLASSIFICATION_TYPE = U
NORAD_CAT_ID   = 66207
ELEMENT_SET_NO = 999
REV_AT_EPOCH   = 293
BSTAR          = -.24889E-2
MEAN_MOTION_DOT = -.480803E-2
MEAN_MOTION_DDOT = 0

CCSDS_OMM_VERS = 2.0
CREATION_DATE  = 
ORIGINATOR     = 

OBJECT_NAME    = STARLINK-35751
OBJECT_ID      = 2025-244C
CENTER_NAME    = EARTH
REF_FRAME      = TEME
TIME_SYSTEM    = UTC
MEAN_ELEMENT_THEORY = SGP/SGP4

EPOCH          = 2025-11-08T00:00:02.998944
MEAN_MOTION    = 15.81227693
ECCENTRICITY   = .0001016
INCLINATION    = 53.1543
RA_OF_ASC_NODE = 81.7014
ARG_OF_PERICENTER = 50.4949
MEAN_ANOMALY   = 49.5352

EPHEMERIS_TYPE = 0
CLASSIFICATION_TYPE = U
NORAD_CAT_ID   = 66208
ELEMENT_SET_NO = 999
REV_AT_EPOCH   = 279
BSTAR          = -.7298E-2
MEAN_MOTION_DOT = -.1290017E-1
MEAN_MOTION_DDOT = 0

CCSDS_OMM_VERS = 2.0
CREATION_DATE  = 
ORIGINATOR     = 

OBJECT_NAME    = STARLINK-35750
OBJECT_ID      = 2025-244D
CENTER_NAME    = EARTH
REF_FRAME      = TEME
TIME_SYSTEM    = UTC
MEAN_ELEMENT_THEORY = SGP/SGP4

EPOCH          = 2025-11-07T23:33:37.939968
MEAN_MOTION    = 15.81524501
ECCENTRICITY   = .0002073
INCLINATION    = 53.1544
RA_OF_ASC_NODE = 81.7833
ARG_OF_PERICENTER = 30.5944
MEAN_ANOMALY   = 329.5200

EPHEMERIS_TYPE = 0
CLASSIFICATION_TYPE = U
NORAD_CAT_ID   = 66209
ELEMENT_SET_NO = 999
REV_AT_EPOCH   = 293
BSTAR          = -.24742E-2
MEAN_MOTION_DOT = -.477382E-2
MEAN_MOTION_DDOT = 0

CCSDS_OMM_VERS = 2.0
CREATION_DATE  = 
ORIGINATOR     = 

OBJECT_NAME    = STARLINK-35740
OBJECT_ID      = 2025-244E
CENTER_NAME    = EARTH
REF_FRAME      = TEME
TIME_SYSTEM    = UTC
MEAN_ELEMENT_THEORY = SGP/SGP4

EPOCH          = 2025-11-07T23:34:09.996960
MEAN_MOTION    = 15.81520751
ECCENTRICITY   = .0002003
INCLINATION    = 53.1545
RA_OF_ASC_NODE = 81.7849
ARG_OF_PERICENTER = 25.4208
MEAN_ANOMALY   = 334.6913

EPHEMERIS_TYPE = 0
CLASSIFICATION_TYPE = U
NORAD_CAT_ID   = 66210
ELEMENT_SET_NO = 999
REV_AT_EPOCH   = 293
BSTAR          = -.24671E-2
MEAN_MOTION_DOT = -.475986E-2
MEAN_MOTION_DDOT = 0

CCSDS_OMM_VERS = 2.0
CREATION_DATE  = 
ORIGINATOR     = 

OBJECT_NAME    = STARLINK-35723
OBJECT_ID      = 2025-244F
CENTER_NAME    = EARTH
REF_FRAME      = TEME
TIME_SYSTEM    = UTC
MEAN_ELEMENT_THEORY = SGP/SGP4

EPOCH          = 2025-11-07T23:33:07.166016
MEAN_MOTION    = 15.81585207
ECCENTRICITY   = .0000548
INCLINATION    = 53.1546
RA_OF_ASC_NODE = 81.7797
ARG_OF_PERICENTER = 20.9200
MEAN_ANOMALY   = 339.1846

EPHEMERIS_TYPE = 0
CLASSIFICATION_TYPE = U
NORAD_CAT_ID   = 66211
ELEMENT_SET_NO = 999
REV_AT_EPOCH   = 293
BSTAR          = -.22038E-2
MEAN_MOTION_DOT = -.428669E-2
MEAN_MOTION_DDOT = 0

CCSDS_OMM_VERS = 2.0
CREATION_DATE  = 
ORIGINATOR     = 

OBJECT_NAME    = STARLINK-35710
OBJECT_ID      = 2025-244G
CENTER_NAME    = EARTH
REF_FRAME      = TEME
TIME_SYSTEM    = UTC
MEAN_ELEMENT_THEORY = SGP/SGP4

EPOCH          = 2025-11-07T23:31:57.931968
MEAN_MOTION    = 15.81500294
ECCENTRICITY   = .0001381
INCLINATION    = 53.1543
RA_OF_ASC_NODE = 81.7743
ARG_OF_PERICENTER = 23.4078
MEAN_ANOMALY   = 336.7008

EPHEMERIS_TYPE = 0
CLASSIFICATION_TYPE = U
NORAD_CAT_ID   = 66212
ELEMENT_SET_NO = 999
REV_AT_EPOCH   = 293
BSTAR          = -.28275E-2
MEAN_MOTION_DOT = -.540802E-2
MEAN_MOTION_DDOT = 0

CCSDS_OMM_VERS = 2.0
CREATION_DATE  = 
ORIGINATOR     = 

OBJECT_NAME    = STARLINK-34204
OBJECT_ID      = 2025-244H
CENTER_NAME    = EARTH
REF_FRAME      = TEME
TIME_SYSTEM    = UTC
MEAN_ELEMENT_THEORY = SGP/SGP4

EPOCH          = 2025-11-07T23:32:28.590144
MEAN_MOTION    = 15.81566143
ECCENTRICITY   = .0000718
INCLINATION    = 53.1545
RA_OF_ASC_NODE = 81.7772
ARG_OF_PERICENTER = 4.4252
MEAN_ANOMALY   = 355.6778

EPHEMERIS_TYPE = 0
CLASSIFICATION_TYPE = U
NORAD_CAT_ID   = 66213
ELEMENT_SET_NO = 999
REV_AT_EPOCH   = 293
BSTAR          = -.20919E-2
MEAN_MOTION_DOT = -.407575E-2
MEAN_MOTION_DDOT = 0

CCSDS_OMM_VERS = 2.0
CREATION_DATE  = 
ORIGINATOR     = 

OBJECT_NAME    = STARLINK-35714
OBJECT_ID      = 2025-244J
CENTER_NAME    = EARTH
REF_FRAME      = TEME
TIME_SYSTEM    = UTC
MEAN_ELEMENT_THEORY = SGP/SGP4

EPOCH          = 2025-11-07T23:29:36.215232
MEAN_MOTION    = 15.81519207
ECCENTRICITY   = .0000828
INCLINATION    = 53.1542
RA_OF_ASC_NODE = 81.7626
ARG_OF_PERICENTER = 18.1102
MEAN_ANOMALY   = 341.9950

EPHEMERIS_TYPE = 0
CLASSIFICATION_TYPE = U
NORAD_CAT_ID   = 66214
ELEMENT_SET_NO = 999
REV_AT_EPOCH   = 293
BSTAR          = -.21624E-2
MEAN_MOTION_DOT = -.419799E-2
MEAN_MOTION_DDOT = 0

CCSDS_OMM_VERS = 2.0
CREATION_DATE  = 
ORIGINATOR     = 

OBJECT_NAME    = STARLINK-35712
OBJECT_ID      = 2025-244K
CENTER_NAME    = EARTH
REF_FRAME      = TEME
TIME_SYSTEM    = UTC
MEAN_ELEMENT_THEORY = SGP/SGP4

EPOCH          = 2025-11-08T00:00:02.998944
MEAN_MOTION    = 15.81114789
ECCENTRICITY   = .0000841
INCLINATION    = 53.1542
RA_OF_ASC_NODE = 81.6498
ARG_OF_PERICENTER = 56.0779
MEAN_ANOMALY   = 68.5698

EPHEMERIS_TYPE = 0
CLASSIFICATION_TYPE = U
NORAD_CAT_ID   = 66215
ELEMENT_SET_NO = 999
REV_AT_EPOCH   = 263
BSTAR          = -.78655E-2
MEAN_MOTION_DOT = -.1397795E-1
MEAN_MOTION_DDOT = 0

