STARLINK-35490          
1 66204U 25243AD  25311.66904865  .03267006  00000+0  15031-1 0  9994
2 66204  53.1528  96.2027 0015344 199.2029 160.8416 15.79230170  1911
GRAVITY-1 R/B           
1 66205U 25226E   25312.17153971  .00042902  28498-5  37830-3 0  9990
2 66205  97.7920  28.8349 0159908 297.4136  61.0927 15.54165820  2108
STARLINK-35748          
1 66206U 25244A   25311.98320127 -.00392631  00000+0 -20098-2 0  9997
2 66206  53.1546  81.7930 0000949  21.9705 338.1359 15.81584153  2937
STARLINK-35747          
1 66207U 25244B   25311.98291174 -.00480803  00000+0 -24889-2 0  9998
2 66207  53.1547  81.7913 0002319  34.4145 325.7027 15.81557842  2939
STARLINK-35751          
1 66208U 25244C   25312.00003471 -.01290017  00000+0 -72980-2 0  9996
2 66208  53.1543  81.7014 0001016  50.4949  49.5352 15.81227693  2795
STARLINK-35750          
1 66209U 25244D   25311.98168912 -.00477382  00000+0 -24742-2 0  9999
2 66209  53.1544  81.7833 0002073  30.5944 329.5200 15.81524501  2931
STARLINK-35740          
1 66210U 25244E   25311.98206015 -.00475986  00000+0 -24671-2 0  9997
2 66210  53.1545  81.7849 0002003  25.4208 334.6913 15.81520751  2931
STARLINK-35723          
1 66211U 25244F   25311.98133294 -.00428669  00000+0 -22038-2 0  9997
2 66211  53.1546  81.7797 0000548  20.9200 339.1846 15.81585207  2931
STARLINK-35710          
1 66212U 25244G   25311.98053162 -.00540802  00000+0 -28275-2 0  9996
2 66212  53.1543  81.7743 0001381  23.4078 336.7008 15.81500294  2933
STARLINK-34204          
1 66213U 25244H   25311.98088646 -.00407575  00000+0 -20919-2 0  9998
2 66213  53.1545  81.7772 0000718   4.4252 355.6778 15.81566143  2933
STARLINK-35714          
1 66214U 25244J   25311.97889138 -.00419799  00000+0 -21624-2 0  9998
2 66214  53.1542  81.7626 0000828  18.1102 341.9950 15.81519207  2936
STARLINK-35712          
1 66215U 25244K   25312.00003471 -.01397795  00000+0 -78655-2 0  9990
2 66215  53.1542  81.6498 0000841  56.0779  68.5698 15.81114789  2633
